{"fetched_at":"2026-07-05T22:07:10.716Z","source":"https://celestrak.org/NORAD/elements/gp.php?GROUP=stations&FORMAT=JSON","constellation":"iss","records":[{"OBJECT_NAME":"ISS (ZARYA)","OBJECT_ID":"1998-067A","EPOCH":"2026-07-05T02:54:29.072448","CLASSIFICATION_TYPE":"U","MEAN_MOTION":15.48901138,"ECCENTRICITY":0.00067403,"INCLINATION":51.6302,"RA_OF_ASC_NODE":211.3234,"ARG_OF_PERICENTER":257.5366,"MEAN_ANOMALY":102.4869,"EPHEMERIS_TYPE":0,"NORAD_CAT_ID":25544,"ELEMENT_SET_NO":999,"REV_AT_EPOCH":57453,"BSTAR":0.00018660962,"MEAN_MOTION_DOT":0.00009813,"MEAN_MOTION_DDOT":0}]}
