ISS (ZARYA)             
1 25544U 98067A   26186.12116982  .00009813  00000+0  18661-3 0  9998
2 25544  51.6302 211.3234 0006740 257.5366 102.4869 15.48901138574530
